{
  "type": "FeatureCollection",
  "features": [
    {
      "type": "Feature",
      "properties": { "nome": "Zona Norte" },
      "geometry": {
        "type": "Polygon",
        "coordinates": [[
          [-46.57590, -23.64601],
          [-46.55,    -23.64601],
          [-46.55,    -23.62],
          [-46.57590, -23.62],
          [-46.57590, -23.64601]
        ]]
      }
    },
    {
      "type": "Feature",
      "properties": { "nome": "Zona Leste" },
      "geometry": {
        "type": "Polygon",
        "coordinates": [[
          [-46.57590, -23.68],
          [-46.55,    -23.68],
          [-46.55,    -23.64601],
          [-46.57590, -23.64601],
          [-46.57590, -23.68]
        ]]
      }
    },
    {
      "type": "Feature",
      "properties": { "nome": "Zona Sul" },
      "geometry": {
        "type": "Polygon",
        "coordinates": [[
          [-46.60, -23.68],
          [-46.57590, -23.68],
          [-46.57590, -23.64601],
          [-46.60, -23.64601],
          [-46.60, -23.68]
        ]]
      }
    },
    {
      "type": "Feature",
      "properties": { "nome": "Zona Oeste" },
      "geometry": {
        "type": "Polygon",
        "coordinates": [[
          [-46.60, -23.64601],
          [-46.57590, -23.64601],
          [-46.57590, -23.62],
          [-46.60, -23.62],
          [-46.60, -23.64601]
        ]]
      }
    }
  ]
}
